NORAD_CAT_ID,OBJECT_NAME,OBJECT_TYPE,EPOCH,MEAN_MOTION,ECCENTRICITY,INCLINATION,RA_OF_ASC_NODE,ARG_OF_PERICENTER,MEAN_ANOMALY,BSTAR,MEAN_MOTION_DOT,MEAN_MOTION_DDOT,TLE_LINE0,TLE_LINE1,TLE_LINE2,SEMIMAJOR_AXIS,PERIOD,APOGEE,PERIGEE,DECAYED
53704.0,STARLINK-4714,PAYLOAD,2023-07-26 01:54:46,15.08836418,0.0001121,53.2154,223.2553,86.1392,273.9728,7.6617e-05,9.32e-06,0.0,0 STARLINK-4714,1 53704U 22107E   23207.07970272  .00000932  00000-0  76617-4 0  9994,2 53704  53.2154 223.2553 0001121  86.1392 273.9728 15.08836418 50127,6917.891,95.438,540.532,538.981,0.0
53704.0,STARLINK-4714,PAYLOAD,2023-07-26 08:16:18,15.08838774,0.0001122,53.2152,222.0657,85.3857,274.7263,9.1094e-05,1.162e-05,0.0,0 STARLINK-4714,1 53704U 22107E   23207.34466168  .00001162  00000-0  91094-4 0  9990,2 53704  53.2152 222.0657 0001122  85.3857 274.7263 15.08838774 50169,6917.884,95.438,540.525,538.973,0.0
53704.0,STARLINK-4714,PAYLOAD,2023-07-27 01:45:33,15.08837099,0.0001154,53.2153,218.7945,86.4324,273.68,5.4199e-05,5.75e-06,0.0,0 STARLINK-4714,1 53704U 22107E   23208.07330500  .00000575  00000-0  54199-4 0  9993,2 53704  53.2153 218.7945 0001154  86.4324 273.6800 15.08837099 49687,6917.889,95.438,540.553,538.956,0.0
53704.0,STARLINK-4714,PAYLOAD,2023-07-28 06:22:30,15.08838232,0.0001217,53.2156,213.4417,84.8939,275.2192,4.2127e-05,3.83e-06,0.0,0 STARLINK-4714,1 53704U 22107E   23209.26562648  .00000383  00000-0  42127-4 0  9990,2 53704  53.2156 213.4417 0001217  84.8939 275.2192 15.08838232 49862,6917.886,95.438,540.593,538.909,0.0
53704.0,STARLINK-4714,PAYLOAD,2023-07-28 07:57:53,15.08838635,0.0001213,53.2157,213.1444,84.5952,275.5178,4.3721e-05,4.08e-06,0.0,0 STARLINK-4714,1 53704U 22107E   23209.33186626  .00000408  00000-0  43721-4 0  9995,2 53704  53.2157 213.1444 0001213  84.5952 275.5178 15.08838635 50460,6917.885,95.438,540.589,538.91,0.0
53704.0,STARLINK-4714,PAYLOAD,2023-07-29 09:24:03,15.08842963,0.0001258,53.216,208.3864,83.309,276.8046,9.1051e-05,1.162e-05,0.0,0 STARLINK-4714,1 53704U 22107E   23210.39170269  .00001162  00000-0  91051-4 0  9996,2 53704  53.2160 208.3864 0001258  83.3090 276.8046 15.08842963 50035,6917.871,95.437,540.607,538.866,0.0
53704.0,STARLINK-4714,PAYLOAD,2023-07-30 09:14:50,15.08840912,0.000123,53.2158,203.9258,90.0,270.1133,6.34e-05,7.21e-06,0.0,0 STARLINK-4714,1 53704U 22107E   23211.38530445  .00000721  00000-0  63400-4 0  9999,2 53704  53.2158 203.9258 0001230  90.0000 270.1133 15.08840912 50188,6917.878,95.437,540.594,538.892,0.0
53704.0,STARLINK-4714,PAYLOAD,2023-08-01 02:34:52,15.08836988,0.0001239,53.2156,196.1943,94.0449,266.0684,1.5663e-05,-3.9e-07,0.0,0 STARLINK-4714,1 53704U 22107E   23213.10754811 -.00000039  00000-0  15663-4 0  9997,2 53704  53.2156 196.1943 0001239  94.0449 266.0684 15.08836988 50442,6917.89,95.438,540.612,538.897,0.0
53704.0,STARLINK-4714,PAYLOAD,2023-08-02 08:47:11,15.0883831,0.0001196,53.2158,190.545,93.8773,266.2356,4.0308e-05,3.54e-06,0.0,0 STARLINK-4714,1 53704U 22107E   23214.36610906  .00000354  00000-0  40308-4 0  9995,2 53704  53.2158 190.5450 0001196  93.8773 266.2356 15.08838310 50634,6917.886,95.438,540.578,538.923,0.0
53704.0,STARLINK-4714,PAYLOAD,2023-08-03 02:16:26,15.08833204,0.0001182,53.2158,187.274,95.114,264.9987,3.1438e-05,2.12e-06,0.0,0 STARLINK-4714,1 53704U 22107E   23215.09475482  .00000212  00000-0  31438-4 0  9991,2 53704  53.2158 187.2740 0001182  95.1140 264.9987 15.08833204 50741,6917.901,95.438,540.584,538.948,0.0
53704.0,STARLINK-4714,PAYLOAD,2023-08-04 08:28:47,15.08766638,0.0001615,53.2164,181.624,88.1652,271.9525,0.00095774,0.00014957,0.0,0 STARLINK-4714,1 53704U 22107E   23216.35333303  .00014957  00000-0  95774-3 0  9999,2 53704  53.2164 181.6240 0001615  88.1652 271.9525 15.08766638 50935,6918.105,95.442,541.087,538.852,0.0
53704.0,STARLINK-4714,PAYLOAD,2023-08-05 01:58:00,15.0884164,0.0001314,53.2169,178.3525,81.0459,279.0682,0.000105,1.384e-05,0.0,0 STARLINK-4714,1 53704U 22107E   23217.08195305  .00001384  00000-0  10500-3 0  9992,2 53704  53.2169 178.3525 0001314  81.0459 279.0682 15.08841640 51045,6917.875,95.437,540.649,538.831,0.0
53704.0,STARLINK-4714,PAYLOAD,2023-08-05 06:44:09,15.08849643,0.0001338,53.2167,177.4598,79.3174,280.7969,0.00013962,1.935e-05,0.0,0 STARLINK-4714,1 53704U 22107E   23217.28066690  .00001935  00000-0  13962-3 0  9995,2 53704  53.2167 177.4598 0001338  79.3174 280.7969 15.08849643 51074,6917.851,95.437,540.642,538.79,0.0
53704.0,STARLINK-4714,PAYLOAD,2023-08-06 03:24:10,15.08843908,0.000144,53.2168,173.5934,74.8745,285.2406,8.0552e-05,9.94e-06,0.0,0 STARLINK-4714,1 53704U 22107E   23218.14179128  .00000994  00000-0  80552-4 0  9996,2 53704  53.2168 173.5934 0001440  74.8745 285.2406 15.08843908 51203,6917.868,95.437,540.73,538.737,0.0
53704.0,STARLINK-4714,PAYLOAD,2023-08-07 03:14:58,15.08838098,0.0001366,53.2166,169.133,90.3048,269.8101,-9.0206e-05,-1.723e-05,0.0,0 STARLINK-4714,1 53704U 22107E   23219.13539920 -.00001723  00000-0 -90206-4 0  9996,2 53704  53.2166 169.1330 0001366  90.3048 269.8101 15.08838098 51358,6917.886,95.438,540.696,538.806,0.0
53704.0,STARLINK-4714,PAYLOAD,2023-08-08 03:05:44,15.08851567,0.0001111,53.2164,164.6741,104.4043,255.7073,4.0613e-05,3.59e-06,0.0,0 STARLINK-4714,1 53704U 22107E   23220.12898590  .00000359  00000-0  40613-4 0  9997,2 53704  53.2164 164.6741 0001111 104.4043 255.7073 15.08851567 51507,6917.845,95.437,540.479,538.941,0.0
53704.0,STARLINK-4714,PAYLOAD,2023-08-08 20:34:59,15.08832374,0.0001227,53.2167,161.4025,96.988,263.1252,9.6747e-05,1.252e-05,0.0,0 STARLINK-4714,1 53704U 22107E   23220.85763754  .00001252  00000-0  96747-4 0  9992,2 53704  53.2167 161.4025 0001227  96.9880 263.1252 15.08832374 51611,6917.904,95.438,540.618,538.92,0.0
53704.0,STARLINK-4714,PAYLOAD,2023-08-10 05:58:05,15.08842895,0.0001281,53.216,155.1589,88.2717,271.8422,1.7865e-05,-4e-08,0.0,0 STARLINK-4714,1 53704U 22107E   23222.24867646 -.00000004  00000-0  17865-4 0  9991,2 53704  53.2160 155.1589 0001281  88.2717 271.8422 15.08842895 51829,6917.872,95.437,540.623,538.85,0.0
53704.0,STARLINK-4714,PAYLOAD,2023-08-11 02:38:06,15.08832626,0.0001479,53.2151,151.2929,81.9337,278.1823,0.00010463,1.377e-05,0.0,0 STARLINK-4714,1 53704U 22107E   23223.10980278  .00001377  00000-0  10463-3 0  9993,2 53704  53.2151 151.2929 0001479  81.9337 278.1823 15.08832626 51951,6917.903,95.438,540.791,538.745,0.0
53704.0,STARLINK-4714,PAYLOAD,2023-08-11 05:48:52,15.08848749,0.0001236,53.2175,150.6982,76.6081,283.5049,0.00011915,1.609e-05,0.0,0 STARLINK-4714,1 53704U 22107E   23223.24227207  .00001609  00000-0  11915-3 0  9995,2 53704  53.2175 150.6982 0001236  76.6081 283.5049 15.08848749 51972,6917.854,95.437,540.574,538.864,0.0
53704.0,STARLINK-4714,PAYLOAD,2023-08-12 02:28:53,15.08844535,0.0001047,53.2168,146.8314,96.8689,263.2422,0.00010949,1.455e-05,0.0,0 STARLINK-4714,1 53704U 22107E   23224.10339711  .00001455  00000-0  10949-3 0  9990,2 53704  53.2168 146.8314 0001047  96.8689 263.2422 15.08844535 52103,6917.867,95.437,540.456,539.007,0.0
53704.0,STARLINK-4714,PAYLOAD,2023-08-12 18:22:45,15.08835364,0.0001332,53.2169,143.8593,83.2075,276.9068,5.3768e-05,5.68e-06,0.0,0 STARLINK-4714,1 53704U 22107E   23224.76580638  .00000568  00000-0  53768-4 0  9999,2 53704  53.2169 143.8593 0001332  83.2075 276.9068 15.08835364 52204,6917.895,95.438,540.681,538.838,0.0
53704.0,STARLINK-4714,PAYLOAD,2023-08-13 03:55:04,15.0884544,0.0001256,53.2153,142.0754,84.8468,275.2667,-1.7963e-05,-5.74e-06,0.0,0 STARLINK-4714,1 53704U 22107E   23225.16324212 -.00000574  00000-0 -17963-4 0  9994,2 53704  53.2153 142.0754 0001256  84.8468 275.2667 15.08845440 52264,6917.864,95.437,540.598,538.86,0.0
53704.0,STARLINK-4714,PAYLOAD,2023-08-15 00:25:51,15.08843605,0.0001318,53.2163,133.7458,103.7351,256.3788,4.7214e-05,4.64e-06,0.0,0 STARLINK-4714,1 53704U 22107E   23227.01796098  .00000464  00000-0  47214-4 0  9993,2 53704  53.2163 133.7458 0001318 103.7351 256.3788 15.08843605 52540,6917.869,95.437,540.646,538.823,0.0
53704.0,STARLINK-4714,PAYLOAD,2023-08-16 01:52:02,15.08844836,0.0001239,53.2167,128.9927,92.8345,267.2789,-7.9401e-06,-4.14e-06,0.0,0 STARLINK-4714,1 53704U 22107E   23228.07780236 -.00000414  00000-0 -79401-5 0  9998,2 53704  53.2167 128.9927 0001239  92.8345 267.2789 15.08844836 52701,6917.866,95.437,540.588,538.873,0.0
53704.0,STARLINK-4714,PAYLOAD,2023-08-16 17:45:54,15.08835025,0.0001274,53.2158,126.0171,92.0946,268.0192,8.4705e-06,-1.53e-06,0.0,0 STARLINK-4714,1 53704U 22107E   23228.74020933 -.00000153  00000-0  84705-5 0  9995,2 53704  53.2158 126.0171 0001274  92.0946 268.0192 15.08835025 52807,6917.896,95.438,540.642,538.879,0.0
53704.0,STARLINK-4714,PAYLOAD,2023-08-17 01:42:49,15.08841406,0.0001314,53.2157,124.5302,92.0062,268.1081,4.8989e-05,4.92e-06,0.0,0 STARLINK-4714,1 53704U 22107E   23229.07140457  .00000492  00000-0  48989-4 0  9994,2 53704  53.2157 124.5302 0001314  92.0062 268.1081 15.08841406 52852,6917.876,95.437,540.65,538.832,0.0
53704.0,STARLINK-4714,PAYLOAD,2023-08-19 01:24:23,15.08840049,0.000151,53.2161,115.6097,99.8201,260.2962,4.6036e-05,4.45e-06,0.0,0 STARLINK-4714,1 53704U 22107E   23231.05860869  .00000445  00000-0  46036-4 0  9990,2 53704  53.2161 115.6097 0001510  99.8201 260.2962 15.08840049 53154,6917.88,95.438,540.79,538.701,0.0
53704.0,STARLINK-4714,PAYLOAD,2023-08-20 01:15:11,15.08836434,0.000137,53.2169,111.148,97.2469,262.8679,-2.4241e-05,-6.74e-06,0.0,0 STARLINK-4714,1 53704U 22107E   23232.05221573 -.00000674  00000-0 -24241-4 0  9994,2 53704  53.2169 111.1480 0001370  97.2469 262.8679 15.08836434 53304,6917.891,95.438,540.704,538.809,0.0
53704.0,STARLINK-4714,PAYLOAD,2023-08-20 21:55:11,15.08844524,0.0001399,53.217,107.2822,97.5162,262.5989,6.7238e-05,7.82e-06,0.0,0 STARLINK-4714,1 53704U 22107E   23232.91332929  .00000782  00000-0  67238-4 0  9998,2 53704  53.2170 107.2822 0001399  97.5162 262.5989 15.08844524 53430,6917.867,95.437,540.699,538.764,0.0
